OBJECT_NAME,OBJECT_ID,EPOCH,MEAN_MOTION,ECCENTRICITY,INCLINATION,RA_OF_ASC_NODE,ARG_OF_PERICENTER,MEAN_ANOMALY,EPHEMERIS_TYPE,CLASSIFICATION_TYPE,NORAD_CAT_ID,ELEMENT_SET_NO,REV_AT_EPOCH,BSTAR,MEAN_MOTION_DOT,MEAN_MOTION_DDOT
INTELSAT 902 (IS-902),2001-039A,2026-06-13T12:54:56.458944,1.00271311,.00045118,6.1085,71.8283,6.7642,326.8910,0,U,26900,999,9065,0,-.277E-5,0
INTELSAT 904 (IS-904),2002-007A,2026-06-13T01:12:23.771232,1.00271515,.00065047,6.9094,69.2332,3.3250,175.4234,0,U,27380,999,5172,0,-.218E-5,0
DIRECTV 5 (TEMPO 1),2002-023A,2026-06-13T14:08:33.341856,1.00271401,.00032134,4.8684,75.3539,20.6900,267.8930,0,U,27426,999,8808,0,-.5E-6,0
INTELSAT 905 (IS-905),2002-027A,2026-06-13T11:14:26.678976,1.00271998,.00038085,6.7440,69.8438,20.0607,203.2730,0,U,27438,999,5132,0,.1E-5,0
GALAXY 3C (G-3C),2002-030A,2026-06-13T14:24:45.038592,1.00271316,.00015564,3.7220,78.0224,34.2316,270.9982,0,U,27445,999,4645,0,-.144E-5,0
INTELSAT 906 (IS-906),2002-041A,2026-06-13T04:50:21.617376,1.00272123,.00046413,5.7930,72.9713,3.1517,322.1191,0,U,27513,999,8698,0,.21E-6,0
GALAXY 13 (HORIZONS-1),2003-044A,2026-06-13T14:09:01.547136,1.00269405,.00023017,1.4105,83.9099,347.7674,252.4828,0,U,27954,999,4653,0,.143E-5,0
INTELSAT 10-02,2004-022A,2026-06-13T14:51:30.657312,1.00269844,.00001548,0.0136,336.6129,229.4472,277.7349,0,U,28358,999,8052,0,0,0
DIRECTV 8,2005-019A,2026-06-13T14:17:53.196576,1.00270823,.00027566,0.0249,67.4271,18.7619,271.1367,0,U,28659,999,7703,0,.12E-6,0
GALAXY 28 (G-28),2005-022A,2026-06-13T11:18:49.518144,1.00271339,.00028658,3.2895,78.9788,1.6531,323.7595,0,U,28702,999,5193,0,-.191E-5,0
GALAXY 16 (G-16),2006-023A,2026-06-13T14:23:37.646592,1.00270667,.00024401,0.0473,146.4892,301.3153,291.0126,0,U,29236,999,7293,0,-.115E-5,0
DIRECTV 9S,2006-043A,2026-06-13T14:23:00.206880,1.00270855,.00048414,2.4113,80.9434,10.8758,284.6547,0,U,29494,999,5134,0,-.104E-5,0
GALAXY 17 (G-17),2007-016B,2026-06-13T12:44:57.415776,1.00269792,.00047487,2.9627,79.9446,21.3919,266.7436,0,U,31307,999,6976,0,-.197E-5,0
INTELSAT 11 (IS-11),2007-044B,2026-06-13T13:49:31.604736,0.99052340,.00021849,3.5558,78.7117,90.7135,81.5744,0,U,32253,999,6841,0,-.275E-5,0
HORIZONS-2,2007-063B,2026-06-13T12:48:12.105216,1.00269619,.00037319,2.5924,80.6688,359.8525,299.5951,0,U,32388,999,6777,0,-.244E-5,0
DIRECTV 11,2008-013A,2026-06-13T10:58:13.992096,1.00271658,.00003175,0.0087,254.9847,115.1892,316.9799,0,U,32729,999,4555,0,-.114E-5,0
GALAXY 18 (G-18),2008-024A,2026-06-13T14:16:45.804576,1.00271416,.00026882,0.0256,4.4379,74.2849,274.3656,0,U,32951,999,4581,0,0,0
INTELSAT 25 (IS-25),2008-034A,2026-06-13T13:48:24.212736,0.99036572,.00030611,2.7002,80.4131,57.7976,108.5033,0,U,33153,999,6565,0,-.267E-5,0
GALAXY 19 (G-19),2008-045A,2026-06-13T14:24:07.598880,1.00270369,.00024137,0.0206,353.7269,92.1695,295.0501,0,U,33376,999,6486,0,0,0
FM-5,2009-034A,2026-06-13T09:19:13.825344,1.00275727,.00006857,0.0185,294.8105,26.2869,354.2684,0,U,35493,999,4660,0,-.189E-5,0
INTELSAT 14 (IS-14),2009-064A,2026-06-13T11:13:42.508704,1.00270817,.00021856,0.0141,34.3309,39.7256,311.1682,0,U,36097,999,6056,0,-.262E-5,0
INTELSAT 15 (IS-15),2009-067A,2026-06-13T16:08:03.353856,1.00271018,.00020373,0.0172,41.6828,44.1594,143.3066,0,U,36106,999,4119,0,-.174E-5,0
DIRECTV 12,2009-075A,2026-06-13T10:57:14.088384,1.00272037,.00003095,0.0085,102.1585,301.7526,279.4468,0,U,36131,999,4651,0,-.92E-6,0
INTELSAT 16 (IS-16),2010-006A,2026-06-13T12:47:27.177216,1.00270705,.00018484,0.0117,349.5097,111.7290,276.2764,0,U,36397,999,5961,0,-.233E-5,0
XM-5,2010-053A,2026-06-13T09:10:59.614752,1.00271810,.00029689,0.0627,273.7826,286.0796,84.3908,0,U,37185,999,5744,0,-.11E-6,0
INTELSAT 17 (IS-17),2010-065B,2026-06-13T15:10:35.476320,1.00271094,.00025636,0.0049,68.3718,21.6640,105.5497,0,U,37238,999,5321,0,.1E-6,0
INTELSAT 28 (IS-28),2011-016A,2026-06-13T09:34:49.830240,1.00270607,.00035974,1.7961,82.6651,4.6530,286.3987,0,U,37392,999,5324,0,-.214E-5,0
INTELSAT 18 (IS-18),2011-056A,2026-06-13T14:00:32.359968,1.00271773,.00020302,0.0204,289.4610,170.7427,191.8374,0,U,37834,999,5377,0,.64E-6,0
INTELSAT 22 (IS-22),2012-011A,2026-06-13T13:29:22.498080,1.00271182,.00015723,0.0371,48.6210,48.7006,78.9760,0,U,38098,999,715,0,0,0
INTELSAT 19 (IS-19),2012-030A,2026-06-13T13:56:32.743392,1.00270517,.00028397,0.0166,8.0181,81.7614,187.2493,0,U,38356,999,5041,0,-.45E-6,0
INTELSAT 20 (IS-20),2012-043A,2026-06-13T10:03:24.590304,1.00271249,.00021093,0.0203,80.0222,96.9586,304.1228,0,U,38740,999,5071,0,-.13E-6,0
