INTELSAT 902 (IS-902)   
1 26900U 01039A   26164.53815346 -.00000277  00000+0  00000+0 0  9999
2 26900   6.1085  71.8283 0004511   6.7642 326.8910  1.00271311 90659
INTELSAT 904 (IS-904)   
1 27380U 02007A   26164.05027513 -.00000218  00000+0  00000+0 0  9991
2 27380   6.9094  69.2332 0006504   3.3250 175.4234  1.00271515 51726
DIRECTV 5 (TEMPO 1)     
1 27426U 02023A   26164.58927479 -.00000050  00000+0  00000+0 0  9992
2 27426   4.8684  75.3539 0003213  20.6900 267.8930  1.00271401 88086
INTELSAT 905 (IS-905)   
1 27438U 02027A   26164.46836434  .00000100  00000+0  00000+0 0  9991
2 27438   6.7440  69.8438 0003808  20.0607 203.2730  1.00271998 51324
GALAXY 3C (G-3C)        
1 27445U 02030A   26164.60052128 -.00000144  00000+0  00000+0 0  9998
2 27445   3.7220  78.0224 0001556  34.2316 270.9982  1.00271316 46454
INTELSAT 906 (IS-906)   
1 27513U 02041A   26164.20163909  .00000021  00000+0  00000+0 0  9995
2 27513   5.7930  72.9713 0004641   3.1517 322.1191  1.00272123 86983
GALAXY 13 (HORIZONS-1)  
1 27954U 03044A   26164.58960124  .00000143  00000+0  00000+0 0  9998
2 27954   1.4105  83.9099 0002301 347.7674 252.4828  1.00269405 46538
INTELSAT 10-02          
1 28358U 04022A   26164.61910483  .00000000  00000+0  00000+0 0  9993
2 28358   0.0136 336.6129 0000154 229.4472 277.7349  1.00269844 80526
DIRECTV 8               
1 28659U 05019A   26164.59575459  .00000012  00000+0  00000+0 0  9994
2 28659   0.0249  67.4271 0002756  18.7619 271.1367  1.00270823 77033
GALAXY 28 (G-28)        
1 28702U 05022A   26164.47140646 -.00000191  00000+0  00000+0 0  9999
2 28702   3.2895  78.9788 0002865   1.6531 323.7595  1.00271339 51930
GALAXY 16 (G-16)        
1 29236U 06023A   26164.59974128 -.00000115  00000+0  00000+0 0  9993
2 29236   0.0473 146.4892 0002440 301.3153 291.0126  1.00270667 72939
DIRECTV 9S              
1 29494U 06043A   26164.59930795 -.00000104  00000+0  00000+0 0  9991
2 29494   2.4113  80.9434 0004841  10.8758 284.6547  1.00270855 51342
GALAXY 17 (G-17)        
1 31307U 07016B   26164.53122009 -.00000197  00000+0  00000+0 0  9995
2 31307   2.9627  79.9446 0004748  21.3919 266.7436  1.00269792 69767
INTELSAT 11 (IS-11)     
1 32253U 07044B   26164.57606024 -.00000275  00000+0  00000+0 0  9992
2 32253   3.5558  78.7117 0002184  90.7135  81.5744  0.99052340 68414
HORIZONS-2              
1 32388U 07063B   26164.53347344 -.00000244  00000+0  00000+0 0  9991
2 32388   2.5924  80.6688 0003731 359.8525 299.5951  1.00269619 67776
DIRECTV 11              
1 32729U 08013A   26164.45710639 -.00000114  00000+0  00000+0 0  9994
2 32729   0.0087 254.9847 0000317 115.1892 316.9799  1.00271658 45550
GALAXY 18 (G-18)        
1 32951U 08024A   26164.59497459  .00000000  00000+0  00000+0 0  9993
2 32951   0.0256   4.4379 0002688  74.2849 274.3656  1.00271416 45813
INTELSAT 25 (IS-25)     
1 33153U 08034A   26164.57528024 -.00000267  00000+0  00000+0 0  9996
2 33153   2.7002  80.4131 0003061  57.7976 108.5033  0.99036572 65659
GALAXY 19 (G-19)        
1 33376U 08045A   26164.60008795  .00000000  00000+0  00000+0 0  9991
2 33376   0.0206 353.7269 0002413  92.1695 295.0501  1.00270369 64863
FM-5                    
1 35493U 09034A   26164.38835446 -.00000189  00000+0  00000+0 0  9997
2 35493   0.0185 294.8105 0000685  26.2869 354.2684  1.00275727 46600
INTELSAT 14 (IS-14)     
1 36097U 09064A   26164.46785311 -.00000262  00000+0  00000+0 0  9997
2 36097   0.0141  34.3309 0002185  39.7256 311.1682  1.00270817 60568
INTELSAT 15 (IS-15)     
1 36106U 09067A   26164.67226104 -.00000174  00000+0  00000+0 0  9996
2 36106   0.0172  41.6828 0002037  44.1594 143.3066  1.00271018 41194
DIRECTV 12              
1 36131U 09075A   26164.45641306 -.00000092  00000+0  00000+0 0  9993
2 36131   0.0085 102.1585 0000309 301.7526 279.4468  1.00272037 46515
INTELSAT 16 (IS-16)     
1 36397U 10006A   26164.53295344 -.00000233  00000+0  00000+0 0  9996
2 36397   0.0117 349.5097 0001848 111.7290 276.2764  1.00270705 59615
XM-5                    
1 37185U 10053A   26164.38263443 -.00000011  00000+0  00000+0 0  9996
2 37185   0.0627 273.7826 0002968 286.0796  84.3908  1.00271810 57441
INTELSAT 17 (IS-17)     
1 37238U 10065B   26164.63235505  .00000010  00000+0  00000+0 0  9992
2 37238   0.0049  68.3718 0002563  21.6640 105.5497  1.00271094 53212
INTELSAT 28 (IS-28)     
1 37392U 11016A   26164.39918785 -.00000214  00000+0  00000+0 0  9998
2 37392   1.7961  82.6651 0003597   4.6530 286.3987  1.00270607 53240
INTELSAT 18 (IS-18)     
1 37834U 11056A   26164.58370787  .00000064  00000+0  00000+0 0  9990
2 37834   0.0204 289.4610 0002030 170.7427 191.8374  1.00271773 53779
INTELSAT 22 (IS-22)     
1 38098U 12011A   26164.56206595  .00000000  00000+0  00000+0 0  9998
2 38098   0.0371  48.6210 0001572  48.7006  78.9760  1.00271182  7154
INTELSAT 19 (IS-19)     
1 38356U 12030A   26164.58093453 -.00000045  00000+0  00000+0 0  9995
2 38356   0.0166   8.0181 0002839  81.7614 187.2493  1.00270517 50414
INTELSAT 20 (IS-20)     
1 38740U 12043A   26164.41903461 -.00000013  00000+0  00000+0 0  9992
2 38740   0.0203  80.0222 0002109  96.9586 304.1228  1.00271249 50717
